ONEWEB-0410             
1 51622U 22012A   23299.75172636  .00002075  00000+0  53121-2 0  9992
2 51622  87.9211 197.5544 0002559  81.6381 278.5041 13.17630429 86691
ONEWEB-0411             
1 51623U 22012B   23299.84702429 -.00000387  00000+0 -11455-2 0  9992
2 51623  87.8915 227.7504 0001568  75.3440 284.7861 13.10376711 82991
ONEWEB-0415             
1 51624U 22012C   23299.84379536  .00002260  00000+0  64363-2 0  9998
2 51624  87.8906 227.7772 0002037 108.0406 252.0943 13.10370811 82991
ONEWEB-0416             
1 51625U 22012D   23299.85516934  .00000184  00000+0  48961-3 0  9995
2 51625  87.8917 227.7630 0001924  71.5512 288.5824 13.10370883 83030
ONEWEB-0422             
1 51626U 22012E   23299.76016138  .00000058  00000+0  11703-3 0  9991
2 51626  87.9193 197.5482 0002153  52.3134 307.8193 13.17646919 86804
ONEWEB-0423             
1 51627U 22012F   23299.75383426  .00000031  00000+0  47458-4 0  9996
2 51627  87.9256 197.5228 0001823  73.2995 286.8336 13.17649970 86695
ONEWEB-0425             
1 51628U 22012G   23299.86491375  .00000501  00000+0  13986-2 0  9991
2 51628  87.8912 227.7524 0002375  78.8419 281.2975 13.10376025 83038
ONEWEB-0428             
1 51629U 22012H   23299.84539696 -.00000644  00000+0 -18814-2 0  9994
2 51629  87.8916 227.7682 0001776  62.8709 297.2599 13.10373965 82990
